NORAD_CAT_ID,OBJECT_NAME,OBJECT_TYPE,EPOCH,MEAN_MOTION,ECCENTRICITY,INCLINATION,RA_OF_ASC_NODE,ARG_OF_PERICENTER,MEAN_ANOMALY,BSTAR,MEAN_MOTION_DOT,MEAN_MOTION_DDOT,TLE_LINE0,TLE_LINE1,TLE_LINE2,SEMIMAJOR_AXIS,PERIOD,APOGEE,PERIGEE,DECAYED
53594.0,STARLINK-4681,PAYLOAD,2023-09-18 10:18:41,15.088466,0.0001439,53.2177,338.9881,68.6576,291.457,0.00018565,2.668e-05,0.0,0 STARLINK-4681,1 53594U 22104G   23261.42964657  .00002668  00000-0  18565-3 0  9992,2 53594  53.2177 338.9881 0001439  68.6576 291.4570 15.08846600 58568,6917.86,95.437,540.721,538.73,0.0
53594.0,STARLINK-4681,PAYLOAD,2023-09-18 11:54:04,15.08848827,0.0001556,53.2183,338.6907,64.2637,295.8516,0.00019215,2.772e-05,0.0,0 STARLINK-4681,1 53594U 22104G   23261.49588536  .00002772  00000-0  19215-3 0  9996,2 53594  53.2183 338.6907 0001556  64.2637 295.8516 15.08848827 59732,6917.853,95.437,540.795,538.642,0.0
53594.0,STARLINK-4681,PAYLOAD,2023-09-19 14:55:36,15.08859217,0.0001523,53.2182,333.6315,100.7123,259.404,0.00029356,4.39e-05,0.0,0 STARLINK-4681,1 53594U 22104G   23262.62195405  .00004390  00000-0  29356-3 0  9996,2 53594  53.2182 333.6315 0001523 100.7123 259.4040 15.08859217 58742,6917.822,95.436,540.74,538.633,0.0
53594.0,STARLINK-4681,PAYLOAD,2023-09-20 10:00:15,15.08829624,0.0001426,53.2179,330.0651,83.1827,276.9328,-0.0001776,-3.113e-05,0.0,0 STARLINK-4681,1 53594U 22104G   23263.41684803 -.00003113  00000-0 -17760-3 0  9999,2 53594  53.2179 330.0651 0001426  83.1827 276.9328 15.08829624 58864,6917.912,95.438,540.764,538.791,0.0
53594.0,STARLINK-4681,PAYLOAD,2023-09-20 11:35:38,15.08830895,0.0001425,53.2178,329.7672,75.0636,285.0514,-0.00011991,-2.195e-05,0.0,0 STARLINK-4681,1 53594U 22104G   23263.48308846 -.00002195  00000-0 -11991-3 0  9995,2 53594  53.2178 329.7672 0001425  75.0636 285.0514 15.08830895 60030,6917.908,95.438,540.759,538.787,0.0
53594.0,STARLINK-4681,PAYLOAD,2023-09-21 09:51:02,15.08841286,0.0001385,53.2174,325.6052,75.6254,284.4891,0.00014658,2.046e-05,0.0,0 STARLINK-4681,1 53594U 22104G   23264.41044991  .00002046  00000-0  14658-3 0  9993,2 53594  53.2174 325.6052 0001385  75.6254 284.4891 15.08841286 59013,6917.876,95.437,540.7,538.783,0.0
53594.0,STARLINK-4681,PAYLOAD,2023-09-21 20:58:45,15.08840727,0.0001434,53.2175,323.5242,75.7,284.4151,0.00035074,5.299e-05,0.0,0 STARLINK-4681,1 53594U 22104G   23264.87413309  .00005299  00000-0  35074-3 0  9994,2 53594  53.2175 323.5242 0001434  75.7000 284.4151 15.08840727 60242,6917.878,95.438,540.735,538.751,0.0
53594.0,STARLINK-4681,PAYLOAD,2023-09-22 12:52:36,15.0885326,0.0001515,53.2177,320.5511,74.9868,285.1291,0.00048684,7.471e-05,0.0,0 STARLINK-4681,1 53594U 22104G   23265.53653006  .00007471  00000-0  48684-3 0  9993,2 53594  53.2177 320.5511 0001515  74.9868 285.1291 15.08853260 60343,6917.84,95.437,540.753,538.657,0.0
53594.0,STARLINK-4681,PAYLOAD,2023-09-22 16:03:22,15.08860029,0.0001501,53.2172,319.9561,75.6509,284.465,0.00062503,9.679e-05,0.0,0 STARLINK-4681,1 53594U 22104G   23265.66900720  .00009679  00000-0  62503-3 0  9993,2 53594  53.2172 319.9561 0001501  75.6509 284.4650 15.08860029 59205,6917.819,95.436,540.723,538.646,0.0
53594.0,STARLINK-4681,PAYLOAD,2023-09-22 20:49:31,15.08839259,8.65e-05,53.2174,319.0646,83.6392,276.4699,-5.4915e-05,-1.162e-05,0.0,0 STARLINK-4681,1 53594U 22104G   23265.86772980 -.00001162  00000-0 -54915-4 0  9990,2 53594  53.2174 319.0646 0000865  83.6392 276.4699 15.08839259 60390,6917.883,95.438,540.346,539.149,0.0
53594.0,STARLINK-4681,PAYLOAD,2023-09-23 11:08:00,15.08851519,0.0001453,53.2169,316.3866,84.0275,276.0883,0.00041827,6.377e-05,0.0,0 STARLINK-4681,1 53594U 22104G   23266.46388894  .00006377  00000-0  41827-3 0  9992,2 53594  53.2169 316.3866 0001453  84.0275 276.0883 15.08851519 60481,6917.845,95.437,540.715,538.705,0.0
53594.0,STARLINK-4681,PAYLOAD,2023-09-24 03:01:51,15.08843147,0.0001512,53.2163,313.415,83.79,276.3265,0.00015215,2.135e-05,0.0,0 STARLINK-4681,1 53594U 22104G   23267.12629125  .00002135  00000-0  15215-3 0  9991,2 53594  53.2163 313.4150 0001512  83.7900 276.3265 15.08843147 59423,6917.871,95.437,540.782,538.69,0.0
53594.0,STARLINK-4681,PAYLOAD,2023-09-24 09:23:24,15.08842375,0.0001462,53.2168,312.2244,90.5807,269.5352,6.3309e-05,7.2e-06,0.0,0 STARLINK-4681,1 53594U 22104G   23267.39125129  .00000720  00000-0  63309-4 0  9991,2 53594  53.2168 312.2244 0001462  90.5807 269.5352 15.08842375 60622,6917.873,95.437,540.75,538.727,0.0
53594.0,STARLINK-4681,PAYLOAD,2023-09-25 09:14:11,15.08846276,0.0001538,53.217,307.7651,85.2515,274.8653,0.00022474,3.291e-05,0.0,0 STARLINK-4681,1 53594U 22104G   23268.38485280  .00003291  00000-0  22474-3 0  9991,2 53594  53.2170 307.7651 0001538  85.2515 274.8653 15.08846276 59611,6917.861,95.437,540.79,538.662,0.0
53594.0,STARLINK-4681,PAYLOAD,2023-09-25 12:24:57,15.08850547,0.0001601,53.2172,307.1688,89.9125,270.2051,0.0001894,2.728e-05,0.0,0 STARLINK-4681,1 53594U 22104G   23268.51732996  .00002728  00000-0  18940-3 0  9992,2 53594  53.2172 307.1688 0001601  89.9125 270.2051 15.08850547 60795,6917.848,95.437,540.821,538.606,0.0
53594.0,STARLINK-4681,PAYLOAD,2023-09-25 14:00:20,15.08853498,0.0001586,53.2168,306.8713,84.8797,275.2376,0.00036572,5.539e-05,0.0,0 STARLINK-4681,1 53594U 22104G   23268.58356974  .00005539  00000-0  36572-3 0  9991,2 53594  53.2168 306.8713 0001586  84.8797 275.2376 15.08853498 60801,6917.839,95.437,540.801,538.607,0.0
53594.0,STARLINK-4681,PAYLOAD,2023-09-26 09:04:58,15.0883745,0.0001753,53.217,303.3047,83.6392,276.48,0.00010893,1.446e-05,0.0,0 STARLINK-4681,1 53594U 22104G   23269.37845885  .00001446  00000-0  10893-3 0  9994,2 53594  53.2170 303.3047 0001753  83.6392 276.4800 15.08837450 59768,6917.888,95.438,540.966,538.54,0.0
53594.0,STARLINK-4681,PAYLOAD,2023-09-26 12:15:44,15.08844093,0.0001634,53.2168,302.7078,90.1304,269.9875,0.00022388,3.277e-05,0.0,0 STARLINK-4681,1 53594U 22104G   23269.51093603  .00003277  00000-0  22388-3 0  9999,2 53594  53.2168 302.7078 0001634  90.1304 269.9875 15.08844093 60948,6917.868,95.437,540.863,538.602,0.0
53594.0,STARLINK-4681,PAYLOAD,2023-09-27 12:06:31,15.08846401,0.0001622,53.2158,298.2468,89.199,270.9188,0.00025855,3.83e-05,0.0,0 STARLINK-4681,1 53594U 22104G   23270.50453570  .00003830  00000-0  25855-3 0  9990,2 53594  53.2158 298.2468 0001622  89.1990 270.9188 15.08846401 61096,6917.861,95.437,540.848,538.604,0.0
53594.0,STARLINK-4681,PAYLOAD,2023-09-28 07:11:09,15.08835762,0.0001773,53.217,294.6759,107.6909,252.4277,3.4202e-05,2.56e-06,0.0,0 STARLINK-4681,1 53594U 22104G   23271.29942064  .00000256  00000-0  34202-4 0  9994,2 53594  53.2170 294.6759 0001773 107.6909 252.4277 15.08835762 60053,6917.893,95.438,540.985,538.532,0.0
53594.0,STARLINK-4681,PAYLOAD,2023-09-29 11:48:06,15.08846427,0.0001702,53.2169,289.3233,88.8036,271.3151,0.00029606,4.428e-05,0.0,0 STARLINK-4681,1 53594U 22104G   23272.49173996  .00004428  00000-0  29606-3 0  9993,2 53594  53.2169 289.3233 0001702  88.8036 271.3151 15.08846427 60233,6917.861,95.437,540.903,538.548,0.0
53594.0,STARLINK-4681,PAYLOAD,2023-09-30 05:17:20,15.08849631,0.0001559,53.2155,286.0523,111.4068,248.709,0.00015271,2.144e-05,0.0,0 STARLINK-4681,1 53594U 22104G   23273.22037420  .00002144  00000-0  15271-3 0  9992,2 53594  53.2155 286.0523 0001559 111.4068 248.7090 15.08849631 61503,6917.851,95.437,540.794,538.637,0.0
53594.0,STARLINK-4681,PAYLOAD,2023-10-01 00:21:58,15.08842528,0.0001333,53.2165,282.4869,96.3163,263.7981,-8.5415e-05,-1.647e-05,0.0,0 STARLINK-4681,1 53594U 22104G   23274.01525835 -.00001647  00000-0 -85415-4 0  9999,2 53594  53.2165 282.4869 0001333  96.3163 263.7981 15.08842528 60462,6917.873,95.437,540.66,538.816,0.0
53594.0,STARLINK-4681,PAYLOAD,2023-10-01 08:18:54,15.0884295,0.0001454,53.2159,281.0004,78.6831,281.4324,-1.5045e-05,-5.27e-06,0.0,0 STARLINK-4681,1 53594U 22104G   23274.34645938 -.00000527  00000-0 -15045-4 0  9990,2 53594  53.2159 281.0004 0001454  78.6831 281.4324 15.08842950 61671,6917.871,95.437,540.742,538.731,0.0
53594.0,STARLINK-4681,PAYLOAD,2023-10-01 17:51:13,15.08839522,0.0001516,53.2151,279.2145,97.9823,262.1341,3.2718e-05,2.33e-06,0.0,0 STARLINK-4681,1 53594U 22104G   23274.74390128  .00000233  00000-0  32718-4 0  9990,2 53594  53.2151 279.2145 0001516  97.9823 262.1341 15.08839522 61735,6917.882,95.438,540.796,538.698,0.0
53594.0,STARLINK-4681,PAYLOAD,2023-10-02 00:12:45,15.08836799,0.0001531,53.2154,278.0264,96.8741,263.2425,4.0417e-05,3.55e-06,0.0,0 STARLINK-4681,1 53594U 22104G   23275.00886392  .00000355  00000-0  40417-4 0  9993,2 53594  53.2154 278.0264 0001531  96.8741 263.2425 15.08836799 60615,6917.89,95.438,540.814,538.696,0.0
53594.0,STARLINK-4681,PAYLOAD,2023-10-02 06:34:18,15.0884172,0.0001523,53.2158,276.8363,97.885,262.2315,0.00010218,1.339e-05,0.0,0 STARLINK-4681,1 53594U 22104G   23275.27382198  .00001339  00000-0  10218-3 0  9995,2 53594  53.2158 276.8363 0001523  97.8850 262.2315 15.08841720 61818,6917.875,95.437,540.794,538.687,0.0
53594.0,STARLINK-4681,PAYLOAD,2023-10-03 04:49:42,15.08845417,0.0001452,53.2156,272.6737,85.8531,274.2627,0.00024938,3.684e-05,0.0,0 STARLINK-4681,1 53594U 22104G   23276.20118233  .00003684  00000-0  24938-3 0  9995,2 53594  53.2156 272.6737 0001452  85.8531 274.2627 15.08845417 60791,6917.864,95.437,540.733,538.724,0.0
53594.0,STARLINK-4681,PAYLOAD,2023-10-03 06:25:05,15.08849491,0.0001437,53.215,272.375,92.704,267.4116,0.00030876,4.631e-05,0.0,0 STARLINK-4681,1 53594U 22104G   23276.26742002  .00004631  00000-0  30876-3 0  9999,2 53594  53.2150 272.3750 0001437  92.7040 267.4116 15.08849491 61965,6917.851,95.437,540.71,538.722,0.0
53594.0,STARLINK-4681,PAYLOAD,2023-10-03 19:08:10,15.08840893,0.0001665,53.2165,269.9982,96.4708,263.6473,0.00010687,1.413e-05,0.0,0 STARLINK-4681,1 53594U 22104G   23276.79734403  .00001413  00000-0  10687-3 0  9996,2 53594  53.2165 269.9982 0001665  96.4708 263.6473 15.08840893 60886,6917.878,95.437,540.894,538.591,0.0
